GPS BIIR-2  (PRN 13)    
1 24876U 97035A   25275.93430948  .00000076  00000+0  00000+0 0  9993
2 24876  55.8579 108.6382 0095725  56.5778 304.4141  2.00563102206792
GPS BIIR-4  (PRN 20)    
1 26360U 00025A   25276.31946860 -.00000062  00000+0  00000+0 0  9990
2 26360  55.0055  29.6857 0037488 235.7280 133.5420  2.00573216186125
GPS BIIR-5  (PRN 22)    
1 26407U 00040A   25276.26852786  .00000004  00000+0  00000+0 0  9991
2 26407  54.9119 225.3686 0129872 300.3355 232.2713  2.00567036184798
GPS BIIR-8  (PRN 16)    
1 27663U 03005A   25275.85872003  .00000005  00000+0  00000+0 0  9999
2 27663  54.9454 225.1950 0144205  50.8544 320.3665  2.00574749166155
GPS BIIR-11 (PRN 19)    
1 28190U 04009A   25276.11602596  .00000016  00000+0  00000+0 0  9990
2 28190  55.0465 286.0647 0107664 166.0700 192.5440  2.00563504157782
GPS BIIR-13 (PRN 02)    
1 28474U 04045A   25275.28636214 -.00000061  00000+0  00000+0 0  9997
2 28474  55.2736 335.2817 0168359 306.5269 231.8452  2.00566206153255
GPS BIIRM-1 (PRN 17)    
1 28874U 05038A   25276.10014414  .00000019  00000+0  00000+0 0  9990
2 28874  55.0922 283.5441 0133794 291.7435  76.4141  2.00552893146681
GPS BIIRM-2 (PRN 31)    
1 29486U 06042A   25276.47961434  .00000030  00000+0  00000+0 0  9992
2 29486  54.6862 161.5296 0106620  49.8508 134.8926  2.00556778139243
GPS BIIRM-3 (PRN 12)    
1 29601U 06052A   25275.15354375  .00000008  00000+0  00000+0 0  9991
2 29601  54.9905 224.2368 0085589  86.9666 273.9987  2.00569099138237
GPS BIIRM-4 (PRN 15)    
1 32260U 07047A   25276.45508796  .00000058  00000+0  00000+0 0  9998
2 32260  53.9050  90.6609 0164695  84.0690 277.8607  2.00567389131669
GPS BIIRM-5 (PRN 29)    
1 32384U 07062A   25276.51631759  .00000017  00000+0  00000+0 0  9990
2 32384  55.2410 284.4618 0032451 163.7574   9.4842  2.00573866130367
GPS BIIRM-6 (PRN 07)    
1 32711U 08012A   25275.87609363  .00000025  00000+0  00000+0 0  9993
2 32711  54.4672 160.2027 0200729 244.3349 113.6548  2.00562361128599
GPS BIIRM-8 (PRN 05)    
1 35752U 09043A   25276.36491808 -.00000047  00000+0  00000+0 0  9999
2 35752  56.0448  37.5571 0054150  82.0563 288.4608  2.00569754118215
GPS BIIF-1  (PRN 25)    
1 36585U 10022A   25276.16811038 -.00000001  00000+0  00000+0 0  9992
2 36585  54.3171 218.9176 0123441  64.3823 286.0419  2.00575538112431
GPS BIIF-3  (PRN 24)    
1 38833U 12053A   25276.05386224  .00000034  00000+0  00000+0 0  9993
2 38833  53.5454 154.1344 0172716  62.6963 299.1378  2.00564348 94285
GPS BIIF-4  (PRN 27)    
1 39166U 13023A   25274.42182613  .00000024  00000+0  00000+0 0  9995
2 39166  54.7125 279.5064 0133975  48.1422 313.0249  2.00565480 90699
GPS BIIF-5  (PRN 30)    
1 39533U 14008A   25275.91460562  .00000025  00000+0  00000+0 0  9995
2 39533  53.6206 159.8138 0078341 226.2056 133.2206  2.00570274 84521
GPS BIIF-6  (PRN 06)    
1 39741U 14026A   25276.19369448 -.00000064  00000+0  00000+0 0  9992
2 39741  56.6089 341.5219 0036582 316.8619  42.9157  2.00566326 83383
GPS BIIF-7  (PRN 09)    
1 40105U 14045A   25275.78565719  .00000068  00000+0  00000+0 0  9995
2 40105  55.1829  98.7293 0033140 117.6516 242.7503  2.00568243 80919
GPS BIIF-8  (PRN 03)    
1 40294U 14068A   25275.65994698 -.00000038  00000+0  00000+0 0  9995
2 40294  56.8077  40.8941 0061575  69.8734 290.7941  2.00560474 80043
GPS BIIF-9  (PRN 26)    
1 40534U 15013A   25276.29032943 -.00000004  00000+0  00000+0 0  9993
2 40534  53.2144 214.8056 0103282  36.6161 324.0730  2.00566826 76672
GPS BIIF-10 (PRN 08)    
1 40730U 15033A   25275.95379411  .00000020  00000+0  00000+0 0  9996
2 40730  54.1904 277.6839 0106675  25.4777 335.0707  2.00569191 74838
GPS BIIF-11 (PRN 10)    
1 41019U 15062A   25275.01509727 -.00000038  00000+0  00000+0 0  9991
2 41019  56.7823  40.7751 0107826 228.2607 130.8231  2.00567050 72656
GPS BIIF-12 (PRN 32)    
1 41328U 16007A   25276.09393532  .00000071  00000+0  00000+0 0  9994
2 41328  55.3625  99.6603 0089115 242.5225 116.6339  2.00564441 70681
GPS BIII-1  (PRN 04)    
1 43873U 18109A   25274.98158087  .00000065  00000+0  00000+0 0  9999
2 43873  55.5233 102.3804 0035763 194.4995 337.5063  2.00574501 49894
GPS BIII-2  (PRN 18)    
1 44506U 19056A   25276.62189632 -.00000064  00000+0  00000+0 0  9998
2 44506  55.7465 341.3388 0057136 196.4921 335.1015  2.00564126 44920
GPS BIII-3  (PRN 23)    
1 45854U 20041A   25276.44864778 -.00000044  00000+0  00000+0 0  9990
2 45854  56.4989  38.9231 0058369 200.5341 150.8029  2.00563515 38880
GPS BIII-4  (PRN 14)    
1 46826U 20078A   25276.50360097  .00000000  00000+0  00000+0 0  9993
2 46826  54.0350 221.1905 0063042 203.5652 156.6075  2.00567159 36366
GPS BIII-5  (PRN 11)    
1 48859U 21054A   25273.71931440 -.00000078  00000+0  00000+0 0  9998
2 48859  55.2816 342.8884 0023643 228.9477 109.7031  2.00557460 31540
GPS BIII-6  (PRN 28)    
1 55268U 23009A   25276.44489247  .00000034  00000+0  00000+0 0  9999
2 55268  55.0963 158.6072 0003683 351.9645 195.9289  2.00561350 20094
GPS BIII-7  (PRN 01)    
1 62339U 24242A   25275.57961462 -.00000072  00000+0  00000+0 0  9996
2 62339  54.9445 344.6254 0008605 341.1019  17.5163  2.00566232  6085
GPS BIII-8  (PRN 21)    
1 64202U 25116A   25275.57175199 -.00000039  00000+0  00000+0 0  9995
2 64202  55.0548  41.5152 0002450 298.2651 245.7791  2.00563151  2702
